OBJECT_NAME,OBJECT_ID,EPOCH,MEAN_MOTION,ECCENTRICITY,INCLINATION,RA_OF_ASC_NODE,ARG_OF_PERICENTER,MEAN_ANOMALY,EPHEMERIS_TYPE,CLASSIFICATION_TYPE,NORAD_CAT_ID,ELEMENT_SET_NO,REV_AT_EPOCH,BSTAR,MEAN_MOTION_DOT,MEAN_MOTION_DDOT
SIRION PATHFINDER-2,2018-099B,2026-05-18T09:10:11.598816,15.14250244,.0009933,97.4270,188.1510,51.7569,308.4555,0,U,43759,999,40811,.15208E-3,.2718E-4,0
CORVUS BC4,2018-099K,2026-05-18T02:00:40.567968,15.12226424,.001005,97.4086,181.9478,103.8501,256.3848,0,U,43767,999,40785,.1827E-3,.3097E-4,0
M2 PATHFINDER,2020-037E,2026-05-18T06:04:11.498304,15.04533933,.000993,97.8161,329.1504,251.4495,108.5652,0,U,45727,999,32099,.89307E-4,.1188E-4,0
NETSAT-4,2020-068U,2026-05-18T11:51:52.233984,15.42798689,.0007435,97.8611,144.3747,75.7611,284.4460,0,U,46504,999,31119,.25348E-3,.11013E-3,0
NETSAT-3,2020-068V,2026-05-18T11:27:27.602784,15.41572600,.0007497,97.8660,142.6116,88.7525,271.4579,0,U,46505,999,31110,.26708E-3,.11142E-3,0
NETSAT-1,2020-068W,2026-05-18T11:02:45.550752,15.33856382,.0006974,97.8750,137.2677,108.2431,251.9570,0,U,46506,999,31074,.23893E-3,.7742E-4,0
NETSAT-2,2020-068X,2026-05-18T05:57:57.331008,15.44629562,.0006292,97.8625,143.9020,98.9669,261.2291,0,U,46507,999,31111,.28725E-3,.1329E-3,0
GREENCUBE (IO-117),2022-080E,2026-05-18T10:59:09.106656,6.42583323,.0008836,70.1432,308.5883,296.6746,63.3009,0,U,53109,999,9015,0,-.3E-7,0
SITRO-AIS 5 (KATYS),2023-091L,2026-05-18T11:46:30.839808,15.28708729,.001126,97.5074,202.1220,199.3195,160.7619,0,U,57176,999,15980,.24576E-3,.6794E-4,0
SITRO-AIS 6 (CHIRKIN),2023-091AC,2026-05-18T11:13:50.066112,15.25315952,.0011374,97.5082,201.3727,202.7860,157.2875,0,U,57192,999,15975,.25279E-3,.6305E-4,0
SITRO-AIS 8 (ANOKHIN),2023-091AD,2026-05-18T11:49:51.521088,15.31256581,.0010576,97.5069,203.5955,194.7995,165.2938,0,U,57193,999,15990,.27411E-3,.821E-4,0
SITRO-AIS 7 (FARTUSHNIY),2023-091AE,2026-05-18T12:44:18.039840,15.25019247,.0011179,97.5079,201.2756,203.6459,156.4266,0,U,57194,999,15975,.24841E-3,.6139E-4,0
SITRO-AIS 10 (BURDAEV),2023-091AK,2026-05-18T12:23:03.624288,15.37393613,.0007561,97.5091,208.3751,167.8872,192.2556,0,U,57199,999,16020,.32432E-3,.11819E-3,0
SITRO-AIS 9 (SHCHUKIN),2023-091AM,2026-05-18T12:48:01.579968,15.36937597,.0007738,97.5090,208.1453,168.3141,191.8284,0,U,57201,999,16019,.32908E-3,.11818E-3,0
SITRO-AIS 12 (SMIRENNIY),2023-091AQ,2026-05-18T12:42:30.261024,15.37223123,.0007541,97.5102,208.5902,162.5980,197.5523,0,U,57204,999,16021,.31247E-3,.1132E-3,0
SITRO-AIS 11 (SHEFFER),2023-091AU,2026-05-18T11:39:31.004064,15.37618069,.0007452,97.5101,208.7740,162.5168,197.6334,0,U,57208,999,16022,.32295E-3,.11854E-3,0
SITRO-AIS 25,2024-039R,2026-05-18T11:49:30.410112,14.93294567,.0147326,95.3918,214.6896,72.2978,289.4268,0,U,59066,999,12029,.27418E-3,.3522E-4,0
SITRO-AIS 26,2024-039S,2026-05-18T11:45:42.913728,14.93096614,.0147648,95.3919,214.5916,72.8374,288.8956,0,U,59067,999,12028,.26848E-3,.3433E-4,0
SITRO-AIS 27,2024-039T,2026-05-18T12:51:14.723712,14.93507329,.014659,95.3919,214.8809,71.3617,290.3461,0,U,59068,999,12031,.24371E-3,.3139E-4,0
SITRO-AIS 28,2024-039U,2026-05-18T12:19:44.523264,14.93543904,.0146582,95.3923,214.9114,71.2843,290.4227,0,U,59071,999,12031,.22036E-3,.2838E-4,0
GRBBETA,2024-128C,2026-05-18T05:15:25.780896,15.06369712,.0044713,61.9902,321.3893,128.4087,232.1034,0,U,60237,999,10175,.1919E-3,.268E-4,0
OOV-CUBE (TUBSAT-30),2024-128F,2026-05-18T05:51:56.750112,15.02606171,.0048363,61.9946,329.9701,127.2394,233.3124,0,U,60240,999,10161,.12844E-3,.1544E-4,0
ROBUSTA-3A (MEDITERRANEE),2024-128J,2026-05-18T11:54:40.038336,15.11165445,.0045441,61.9867,313.2040,122.4187,238.1316,0,U,60243,999,10193,.31757E-3,.526E-4,0
LASARSAT,2024-247Q,2026-05-18T12:00:04.589568,15.44392444,.0005415,44.9758,68.7838,160.1412,199.9689,0,U,62391,999,7872,.4096E-3,.19038E-3,0
CROCUBE,2024-247T,2026-05-18T05:00:12.744576,15.45997443,.0005074,44.9731,68.2037,161.9433,198.1638,0,U,62394,999,7870,.43364E-3,.21336E-3,0
FORESAIL-1 PRIME,2025-276DS,2026-05-18T03:30:49.273632,15.18400035,.0002301,97.4208,211.9724,170.4072,189.7206,0,U,66778,999,2584,.178E-3,.3594E-4,0
KNACKSAT-2,1998-067XZ,2026-05-18T03:36:17.897760,15.57192031,.0012324,51.6302,85.2389,88.8056,271.4348,0,U,67683,999,1559,.42858E-3,.31493E-3,0
